[{"OBJECT_NAME":"ONEWEB-0568","OBJECT_ID":"2023-043S","EPOCH":"2026-02-02T02:47:31.135776","MEAN_MOTION":13.16593937,"ECCENTRICITY":0.00017988,"INCLINATION":87.9015,"RA_OF_ASC_NODE":255.6591,"ARG_OF_PERICENTER":87.2403,"MEAN_ANOMALY":272.8933,"EPHEMERIS_TYPE":0,"CLASSIFICATION_TYPE":"U","NORAD_CAT_ID":56062,"ELEMENT_SET_NO":999,"REV_AT_EPOCH":14120,"BSTAR":0.00010951749,"MEAN_MOTION_DOT":5.5e-7,"MEAN_MOTION_DDOT":0},{"OBJECT_NAME":"ONEWEB-0574","OBJECT_ID":"2023-043T","EPOCH":"2026-02-02T03:35:36.850848","MEAN_MOTION":13.2182734,"ECCENTRICITY":0.00016142,"INCLINATION":87.9204,"RA_OF_ASC_NODE":270.9017,"ARG_OF_PERICENTER":75.2164,"MEAN_ANOMALY":284.9149,"EPHEMERIS_TYPE":0,"CLASSIFICATION_TYPE":"U","NORAD_CAT_ID":56063,"ELEMENT_SET_NO":999,"REV_AT_EPOCH":14043,"BSTAR":0.00038012289,"MEAN_MOTION_DOT":1.7e-6,"MEAN_MOTION_DDOT":0},{"OBJECT_NAME":"ONEWEB-0575","OBJECT_ID":"2023-043U","EPOCH":"2026-02-02T02:38:23.700192","MEAN_MOTION":13.1659389,"ECCENTRICITY":0.0001811,"INCLINATION":87.9012,"RA_OF_ASC_NODE":255.6589,"ARG_OF_PERICENTER":74.6439,"MEAN_ANOMALY":285.4892,"EPHEMERIS_TYPE":0,"CLASSIFICATION_TYPE":"U","NORAD_CAT_ID":56064,"ELEMENT_SET_NO":999,"REV_AT_EPOCH":14119,"BSTAR":-5.1473014e-5,"MEAN_MOTION_DOT":-7.0e-8,"MEAN_MOTION_DDOT":0},{"OBJECT_NAME":"ONEWEB-0576","OBJECT_ID":"2023-043V","EPOCH":"2026-02-02T04:00:28.336896","MEAN_MOTION":13.16594214,"ECCENTRICITY":0.00016894,"INCLINATION":87.9013,"RA_OF_ASC_NODE":255.6506,"ARG_OF_PERICENTER":78.4501,"MEAN_ANOMALY":281.682,"EPHEMERIS_TYPE":0,"CLASSIFICATION_TYPE":"U","NORAD_CAT_ID":56065,"ELEMENT_SET_NO":999,"REV_AT_EPOCH":14119,"BSTAR":-0.00018235217,"MEAN_MOTION_DOT":-5.7e-7,"MEAN_MOTION_DDOT":0},{"OBJECT_NAME":"ONEWEB-0577","OBJECT_ID":"2023-043W","EPOCH":"2026-02-02T02:20:09.343104","MEAN_MOTION":13.16594271,"ECCENTRICITY":0.00018658,"INCLINATION":87.9014,"RA_OF_ASC_NODE":255.663,"ARG_OF_PERICENTER":62.1911,"MEAN_ANOMALY":297.9409,"EPHEMERIS_TYPE":0,"CLASSIFICATION_TYPE":"U","NORAD_CAT_ID":56066,"ELEMENT_SET_NO":999,"REV_AT_EPOCH":14121,"BSTAR":3.5807727e-5,"MEAN_MOTION_DOT":2.7e-7,"MEAN_MOTION_DDOT":0},{"OBJECT_NAME":"ONEWEB-0578","OBJECT_ID":"2023-043X","EPOCH":"2026-02-02T05:05:39.095520","MEAN_MOTION":13.21824992,"ECCENTRICITY":0.00018252,"INCLINATION":87.9195,"RA_OF_ASC_NODE":270.8988,"ARG_OF_PERICENTER":84.0839,"MEAN_ANOMALY":276.0503,"EPHEMERIS_TYPE":0,"CLASSIFICATION_TYPE":"U","NORAD_CAT_ID":56067,"ELEMENT_SET_NO":999,"REV_AT_EPOCH":14040,"BSTAR":0.00031151662,"MEAN_MOTION_DOT":1.42e-6,"MEAN_MOTION_DDOT":0},{"OBJECT_NAME":"ONEWEB-0579","OBJECT_ID":"2023-043Y","EPOCH":"2026-02-02T04:51:26.083872","MEAN_MOTION":13.21827585,"ECCENTRICITY":0.00012559,"INCLINATION":87.92,"RA_OF_ASC_NODE":270.8894,"ARG_OF_PERICENTER":78.9676,"MEAN_ANOMALY":281.1599,"EPHEMERIS_TYPE":0,"CLASSIFICATION_TYPE":"U","NORAD_CAT_ID":56068,"ELEMENT_SET_NO":999,"REV_AT_EPOCH":14041,"BSTAR":0.00014184087,"MEAN_MOTION_DOT":7.2e-7,"MEAN_MOTION_DDOT":0},{"OBJECT_NAME":"ONEWEB-0581","OBJECT_ID":"2023-043Z","EPOCH":"2026-02-02T02:29:16.497024","MEAN_MOTION":13.16594187,"ECCENTRICITY":0.00015569,"INCLINATION":87.9008,"RA_OF_ASC_NODE":255.674,"ARG_OF_PERICENTER":67.4493,"MEAN_ANOMALY":292.6803,"EPHEMERIS_TYPE":0,"CLASSIFICATION_TYPE":"U","NORAD_CAT_ID":56069,"ELEMENT_SET_NO":999,"REV_AT_EPOCH":14118,"BSTAR":6.1339373e-5,"MEAN_MOTION_DOT":3.6e-7,"MEAN_MOTION_DDOT":0},{"OBJECT_NAME":"ONEWEB-0609","OBJECT_ID":"2023-043AA","EPOCH":"2026-02-02T04:22:04.517472","MEAN_MOTION":13.15547767,"ECCENTRICITY":0.00015697,"INCLINATION":87.8995,"RA_OF_ASC_NODE":286.1717,"ARG_OF_PERICENTER":81.9492,"MEAN_ANOMALY":278.1816,"EPHEMERIS_TYPE":0,"CLASSIFICATION_TYPE":"U","NORAD_CAT_ID":56070,"ELEMENT_SET_NO":999,"REV_AT_EPOCH":13868,"BSTAR":-0.00030059826,"MEAN_MOTION_DOT":-1.0e-6,"MEAN_MOTION_DDOT":0},{"OBJECT_NAME":"ONEWEB-0613","OBJECT_ID":"2023-043AB","EPOCH":"2026-02-02T06:04:45.511392","MEAN_MOTION":13.15548505,"ECCENTRICITY":0.00012596,"INCLINATION":87.8993,"RA_OF_ASC_NODE":286.1682,"ARG_OF_PERICENTER":80.2572,"MEAN_ANOMALY":279.87,"EPHEMERIS_TYPE":0,"CLASSIFICATION_TYPE":"U","NORAD_CAT_ID":56071,"ELEMENT_SET_NO":999,"REV_AT_EPOCH":13869,"BSTAR":-0.00011350726,"MEAN_MOTION_DOT":-3.0e-7,"MEAN_MOTION_DDOT":0},{"OBJECT_NAME":"ONEWEB-0630","OBJECT_ID":"2023-043AC","EPOCH":"2026-02-02T05:57:55.439712","MEAN_MOTION":13.15550631,"ECCENTRICITY":0.00012768,"INCLINATION":87.8988,"RA_OF_ASC_NODE":286.1399,"ARG_OF_PERICENTER":78.7723,"MEAN_ANOMALY":281.3551,"EPHEMERIS_TYPE":0,"CLASSIFICATION_TYPE":"U","NORAD_CAT_ID":56072,"ELEMENT_SET_NO":999,"REV_AT_EPOCH":13868,"BSTAR":0.00010356013,"MEAN_MOTION_DOT":5.2e-7,"MEAN_MOTION_DDOT":0},{"OBJECT_NAME":"ONEWEB-0632","OBJECT_ID":"2023-043AD","EPOCH":"2026-02-02T05:51:03.652992","MEAN_MOTION":13.1554811,"ECCENTRICITY":0.00015544,"INCLINATION":87.8989,"RA_OF_ASC_NODE":286.1579,"ARG_OF_PERICENTER":70.7901,"MEAN_ANOMALY":289.3397,"EPHEMERIS_TYPE":0,"CLASSIFICATION_TYPE":"U","NORAD_CAT_ID":56073,"ELEMENT_SET_NO":999,"REV_AT_EPOCH":13868,"BSTAR":0.00018768758,"MEAN_MOTION_DOT":8.3e-7,"MEAN_MOTION_DDOT":0},{"OBJECT_NAME":"ONEWEB-0633","OBJECT_ID":"2023-043AE","EPOCH":"2026-02-02T05:41:57.034752","MEAN_MOTION":13.15548806,"ECCENTRICITY":0.00012062,"INCLINATION":87.8994,"RA_OF_ASC_NODE":286.1234,"ARG_OF_PERICENTER":91.7653,"MEAN_ANOMALY":268.3615,"EPHEMERIS_TYPE":0,"CLASSIFICATION_TYPE":"U","NORAD_CAT_ID":56074,"ELEMENT_SET_NO":999,"REV_AT_EPOCH":13866,"BSTAR":0.00025813929,"MEAN_MOTION_DOT":1.1e-6,"MEAN_MOTION_DDOT":0},{"OBJECT_NAME":"ONEWEB-0634","OBJECT_ID":"2023-043AF","EPOCH":"2026-02-02T05:21:24.207840","MEAN_MOTION":13.15548095,"ECCENTRICITY":0.0001718,"INCLINATION":87.8992,"RA_OF_ASC_NODE":286.1777,"ARG_OF_PERICENTER":88.1455,"MEAN_ANOMALY":271.9872,"EPHEMERIS_TYPE":0,"CLASSIFICATION_TYPE":"U","NORAD_CAT_ID":56075,"ELEMENT_SET_NO":999,"REV_AT_EPOCH":13865,"BSTAR":0.00038651337,"MEAN_MOTION_DOT":1.58e-6,"MEAN_MOTION_DDOT":0},{"OBJECT_NAME":"ONEWEB-0635","OBJECT_ID":"2023-043AG","EPOCH":"2026-02-02T05:14:32.863488","MEAN_MOTION":13.15547737,"ECCENTRICITY":0.00016345,"INCLINATION":87.8991,"RA_OF_ASC_NODE":286.1316,"ARG_OF_PERICENTER":67.4071,"MEAN_ANOMALY":292.7232,"EPHEMERIS_TYPE":0,"CLASSIFICATION_TYPE":"U","NORAD_CAT_ID":56076,"ELEMENT_SET_NO":999,"REV_AT_EPOCH":13868,"BSTAR":0.00053456371,"MEAN_MOTION_DOT":2.14e-6,"MEAN_MOTION_DDOT":0},{"OBJECT_NAME":"ONEWEB-0636","OBJECT_ID":"2023-043AH","EPOCH":"2026-02-02T05:03:08.326656","MEAN_MOTION":13.15547502,"ECCENTRICITY":0.00016413,"INCLINATION":87.8986,"RA_OF_ASC_NODE":286.1489,"ARG_OF_PERICENTER":71.6215,"MEAN_ANOMALY":288.5094,"EPHEMERIS_TYPE":0,"CLASSIFICATION_TYPE":"U","NORAD_CAT_ID":56077,"ELEMENT_SET_NO":999,"REV_AT_EPOCH":13866,"BSTAR":0.00031621829,"MEAN_MOTION_DOT":1.32e-6,"MEAN_MOTION_DDOT":0}]
