ONEWEB-0568             
1 56062U 23043S   26033.11633259  .00000055  00000+0  10952-3 0  9994
2 56062  87.9015 255.6591 0001798  87.2403 272.8933 13.16593937141202
ONEWEB-0574             
1 56063U 23043T   26033.14973207  .00000170  00000+0  38012-3 0  9993
2 56063  87.9204 270.9017 0001614  75.2164 284.9149 13.21827340140435
ONEWEB-0575             
1 56064U 23043U   26033.10999653 -.00000007  00000+0 -51473-4 0  9991
2 56064  87.9012 255.6589 0001811  74.6439 285.4892 13.16593890141193
ONEWEB-0576             
1 56065U 23043V   26033.16699464 -.00000057  00000+0 -18235-3 0  9998
2 56065  87.9013 255.6506 0001689  78.4501 281.6820 13.16594214141199
ONEWEB-0577             
1 56066U 23043W   26033.09733036  .00000027  00000+0  35808-4 0  9996
2 56066  87.9014 255.6630 0001865  62.1911 297.9409 13.16594271141219
ONEWEB-0578             
1 56067U 23043X   26033.21225805  .00000142  00000+0  31152-3 0  9996
2 56067  87.9195 270.8988 0001825  84.0839 276.0503 13.21824992140408
ONEWEB-0579             
1 56068U 23043Y   26033.20238523  .00000072  00000+0  14184-3 0  9995
2 56068  87.9200 270.8894 0001255  78.9676 281.1599 13.21827585140414
ONEWEB-0581             
1 56069U 23043Z   26033.10366316  .00000036  00000+0  61339-4 0  9992
2 56069  87.9008 255.6740 0001556  67.4493 292.6803 13.16594187141189
ONEWEB-0609             
1 56070U 23043AA  26033.18199673 -.00000100  00000+0 -30060-3 0  9992
2 56070  87.8995 286.1717 0001569  81.9492 278.1816 13.15547767138687
ONEWEB-0613             
1 56071U 23043AB  26033.25330453 -.00000030  00000+0 -11351-3 0  9998
2 56071  87.8993 286.1682 0001259  80.2572 279.8700 13.15548505138696
ONEWEB-0630             
1 56072U 23043AC  26033.24855833  .00000052  00000+0  10356-3 0  9998
2 56072  87.8988 286.1399 0001276  78.7723 281.3551 13.15550631138689
ONEWEB-0632             
1 56073U 23043AD  26033.24379228  .00000083  00000+0  18769-3 0  9998
2 56073  87.8989 286.1579 0001554  70.7901 289.3397 13.15548110138685
ONEWEB-0633             
1 56074U 23043AE  26033.23746568  .00000110  00000+0  25814-3 0  9993
2 56074  87.8994 286.1234 0001206  91.7653 268.3615 13.15548806138661
ONEWEB-0634             
1 56075U 23043AF  26033.22319685  .00000158  00000+0  38651-3 0  9994
2 56075  87.8992 286.1777 0001718  88.1455 271.9872 13.15548095138654
ONEWEB-0635             
1 56076U 23043AG  26033.21843592  .00000214  00000+0  53456-3 0  9996
2 56076  87.8991 286.1316 0001634  67.4071 292.7232 13.15547737138680
ONEWEB-0636             
1 56077U 23043AH  26033.21051304  .00000132  00000+0  31622-3 0  9999
2 56077  87.8986 286.1489 0001641  71.6215 288.5094 13.15547502138668
